{
    "links": {
        "self": "http://www.neowsapp.com/rest/v1/neo/3660313?api_key=iIulBulltgU6a56xZRHN4H3l9WmuAYTsLGpBGhQ2"
    },
    "id": "3660313",
    "neo_reference_id": "3660313",
    "name": "(2014 BV59)",
    "designation": "2014 BV59",
    "nasa_jpl_url": "http://ssd.jpl.nasa.gov/sbdb.cgi?sstr=3660313",
    "absolute_magnitude_h": 23.8,
    "estimated_diameter": {
        "kilometers": {
            "estimated_diameter_min": 0.046190746,
            "estimated_diameter_max": 0.1032856481
        },
        "meters": {
            "estimated_diameter_min": 46.1907460282,
            "estimated_diameter_max": 103.2856480504
        },
        "miles": {
            "estimated_diameter_min": 0.0287015901,
            "estimated_diameter_max": 0.0641787064
        },
        "feet": {
            "estimated_diameter_min": 151.544447199,
            "estimated_diameter_max": 338.8636855496
        }
    },
    "is_potentially_hazardous_asteroid": false,
    "close_approach_data": [
        {
            "close_approach_date": "2014-01-16",
            "close_approach_date_full": "2014-Jan-16 16:06",
            "epoch_date_close_approach": 1389888360000,
            "relative_velocity": {
                "kilometers_per_second": "8.0854477846",
                "kilometers_per_hour": "29107.6120245882",
                "miles_per_hour": "18086.3381493893"
            },
            "miss_distance": {
                "astronomical": "0.2386322693",
                "lunar": "92.8279527577",
                "kilometers": "35698879.200546391",
                "miles": "22182254.9303905558"
            },
            "orbiting_body": "Earth"
        }
    ],
    "orbital_data": {
        "orbit_id": "4",
        "orbit_determination_date": "2017-04-06 08:42:37",
        "first_observation_date": "2014-01-28",
        "last_observation_date": "2014-01-30",
        "data_arc_in_days": 2,
        "observations_used": 12,
        "orbit_uncertainty": "9",
        "minimum_orbit_intersection": ".206401",
        "jupiter_tisserand_invariant": "4.796",
        "epoch_osculation": "2456686.5",
        "eccentricity": ".1519492743597431",
        "semi_major_axis": "1.361859773211836",
        "inclination": "15.42789630790171",
        "ascending_node_longitude": "118.2820748219894",
        "orbital_period": "580.4930368016651",
        "perihelion_distance": "1.154926168892573",
        "perihelion_argument": "314.3773747937421",
        "aphelion_distance": "1.568793377531098",
        "perihelion_time": "2456616.132611069630",
        "mean_anomaly": "43.63921426948723",
        "mean_motion": ".6201624777163345",
        "equinox": "J2000",
        "orbit_class": {
            "orbit_class_type": "AMO",
            "orbit_class_description": "Near-Earth asteroid orbits similar to that of 1221 Amor",
            "orbit_class_range": "1.017 AU < q (perihelion) < 1.3 AU"
        }
    },
    "is_sentry_object": false
}